From: horizons@ssd.jpl.nasa.gov (Horizons Ephemeris System)
Subject: [Horizons] SMALL BODY #C(500@10)_T(LINEAR (C/2011 J3)) (1/1)
Date: February 16, 2021 at 11:06:38 AM PST

Automated mail xmit by MAIL_REQUEST, PID= 31125 Tue Feb 16 11:06:38 2021
++++++++++++++++++++++++++++++++ (part 1 of 1)  +++++++++++++++++++++++++++++++


*******************************************************************************
Ephemeris / MAIL_REQUEST Tue Feb 16 11:06:38 2021 Pasadena, USA  / Horizons
*******************************************************************************
Target body name: LINEAR (C/2011 J3)              {source: JPL#11}
Center body name: Sun (10)                        {source: DE431}
Center-site name: BODY CENTER
*******************************************************************************
Start time      : A.D. 2008-Jan-24 00:00:00.0000 TDB
Stop  time      : A.D. 2014-Jan-24 00:00:00.0000 TDB
Step-size       : 20160 minutes
*******************************************************************************
Center geodetic : 0.00000000,0.00000000,0.0000000 {E-lon(deg),Lat(deg),Alt(km)}
Center cylindric: 0.00000000,0.00000000,0.0000000 {E-lon(deg),Dxy(km),Dz(km)}
Center radii    : 696000.0 x 696000.0 x 696000.0 k{Equator, meridian, pole}    
Small perturbers: Yes                             {source: SB431-N16}
Output units    : AU-D
Output type     : GEOMETRIC cartesian states
Output format   : 3 (position, velocity, LT, range, range-rate)
Reference frame : Ecliptic of J2000.0
*******************************************************************************
Initial IAU76/J2000 heliocentric ecliptic osculating elements (au, days, deg.):
 EPOCH=  2455711.5 ! 2011-May-30.0000000 (TDB)    RMSW= n.a.                  
  EC= .9258284402393274   QR= 1.450992159551614   TP= 2455585.8877876475      
  OM= 21.51231515705576   W= 27.84491744751259    IN= 114.7123652374121       
 Equivalent ICRF heliocentric equatorial cartesian coordinates (au, au/d):
  X=-4.712992371347413E-02  Y=-1.685267639578006E+00  Z= 1.404392400561413E+00
 VX=-1.254888298205976E-02 VY=-9.582327553247942E-03 VZ= 2.301316138999475E-03
Comet physical (GM= km^3/s^2; RAD= km):                                        
  GM= n.a.                RAD= n.a.                                           
  M1=  13.1     M2=  16.5     k1=  14.    k2=  5.      PHCOF=  .030           
*******************************************************************************
           JDTDB,            Calendar Date (TDB),                      X,                      Y,                      Z,                     VX,                     VY,                     VZ,                     LT,                     RG,                     RR,
**************************************************************************************************************************************************************************************************************************************************************************
$$SOE
2456673.500000000, A.D. 2014-Jan-16 00:00:00.0000, -8.456229129614792E+00, -4.242004143077126E+00,  1.831903975308038E+00, -6.400586848460506E-03, -1.794894952211105E-03, -1.490266899917293E-03,  5.565462871384402E-02,  9.636300245279752E+00,  6.123590321806877E-03,
